{
  "type": "FeatureCollection",
  "features": [
    {
      "type": "Feature",
      "properties": {
        "norad_id": 30708,
        "name": "FENGYUN 1C DEB",
        "group": "fengyun-1c-debris",
        "lat": -20.16179588735034,
        "lon": 4.682076544674773,
        "alt_km": 862.0324555451261,
        "timestamp": "2025-12-13T20:38:51.283461+00:00",
        "meta_object_name": "FENGYUN 1C DEB",
        "meta_object_id": "1999-025ARS",
        "meta_epoch": "2025-12-13T07:11:49.034112",
        "meta_mean_motion": 14.12179432,
        "meta_eccentricity": 0.00080994,
        "meta_inclination": 98.6905,
        "meta_ra_of_asc_node": 0.9195,
        "meta_arg_of_pericenter": 192.8736,
        "meta_mean_anomaly": 179.1746,
        "meta_ephemeris_type": 0,
        "meta_classification_type": "U",
        "meta_norad_cat_id": 30708,
        "meta_element_set_no": 999,
        "meta_rev_at_epoch": 96844,
        "meta_bstar": 0.00021788201,
        "meta_mean_motion_dot": 3.58e-06,
        "meta_mean_motion_ddot": 0,
        "tle_line1": "1 30708U 99025ARS 25347.29987308  .00000358  00000+0  21788-3 0  9994",
        "tle_line2": "2 30708  98.6905   0.9195 0008099 192.8736 179.1746 14.12179432968443"
      },
      "geometry": {
        "type": "Point",
        "coordinates": [
          4.682076544674773,
          -20.16179588735034
        ]
      }
    },
    {
      "type": "Feature",
      "properties": {
        "norad_id": 30709,
        "name": "FENGYUN 1C DEB",
        "group": "fengyun-1c-debris",
        "lat": 29.19954936890775,
        "lon": -39.31576260875173,
        "alt_km": 864.1642097916056,
        "timestamp": "2025-12-13T20:38:51.283472+00:00",
        "meta_object_name": "FENGYUN 1C DEB",
        "meta_object_id": "1999-025ART",
        "meta_epoch": "2025-12-13T03:34:00.953760",
        "meta_mean_motion": 14.17487346,
        "meta_eccentricity": 0.00824776,
        "meta_inclination": 99.1448,
        "meta_ra_of_asc_node": 325.117,
        "meta_arg_of_pericenter": 268.9902,
        "meta_mean_anomaly": 90.1821,
        "meta_ephemeris_type": 0,
        "meta_classification_type": "U",
        "meta_norad_cat_id": 30709,
        "meta_element_set_no": 999,
        "meta_rev_at_epoch": 96002,
        "meta_bstar": 0.0038720417,
        "meta_mean_motion_dot": 8.081e-05,
        "meta_mean_motion_ddot": 0,
        "tle_line1": "1 30709U 99025ART 25347.14862215  .00008081  00000+0  38720-2 0  9992",
        "tle_line2": "2 30709  99.1448 325.1170 0082477 268.9902  90.1821 14.17487346960022"
      },
      "geometry": {
        "type": "Point",
        "coordinates": [
          -39.31576260875173,
          29.19954936890775
        ]
      }
    },
    {
      "type": "Feature",
      "properties": {
        "norad_id": 30710,
        "name": "FENGYUN 1C DEB",
        "group": "fengyun-1c-debris",
        "lat": 7.1134264136957785,
        "lon": 59.10569734217513,
        "alt_km": 917.8679338031425,
        "timestamp": "2025-12-13T20:38:51.283483+00:00",
        "meta_object_name": "FENGYUN 1C DEB",
        "meta_object_id": "1999-025ARU",
        "meta_epoch": "2025-12-12T21:44:19.079232",
        "meta_mean_motion": 13.94147988,
        "meta_eccentricity": 0.02235123,
        "meta_inclination": 102.7457,
        "meta_ra_of_asc_node": 236.1745,
        "meta_arg_of_pericenter": 82.8563,
        "meta_mean_anomaly": 338.6443,
        "meta_ephemeris_type": 0,
        "meta_classification_type": "U",
        "meta_norad_cat_id": 30710,
        "meta_element_set_no": 999,
        "meta_rev_at_epoch": 94791,
        "meta_bstar": 0.0032519571,
        "meta_mean_motion_dot": 5.237e-05,
        "meta_mean_motion_ddot": 0,
        "tle_line1": "1 30710U 99025ARU 25346.90577638  .00005237  00000+0  32520-2 0  9991",
        "tle_line2": "2 30710 102.7457 236.1745 0223512  82.8563 338.6443 13.94147988947919"
      },
      "geometry": {
        "type": "Point",
        "coordinates": [
          59.10569734217513,
          7.1134264136957785
        ]
      }
    },
    {
      "type": "Feature",
      "properties": {
        "norad_id": 30714,
        "name": "FENGYUN 1C DEB",
        "group": "fengyun-1c-debris",
        "lat": -11.709274726554812,
        "lon": -145.49560318864638,
        "alt_km": 884.5223225481186,
        "timestamp": "2025-12-13T20:38:51.283493+00:00",
        "meta_object_name": "FENGYUN 1C DEB",
        "meta_object_id": "1999-025ARY",
        "meta_epoch": "2025-12-12T22:20:25.615392",
        "meta_mean_motion": 14.03292427,
        "meta_eccentricity": 0.00666407,
        "meta_inclination": 98.8373,
        "meta_ra_of_asc_node": 35.4494,
        "meta_arg_of_pericenter": 282.1429,
        "meta_mean_anomaly": 257.4327,
        "meta_ephemeris_type": 0,
        "meta_classification_type": "U",
        "meta_norad_cat_id": 30714,
        "meta_element_set_no": 999,
        "meta_rev_at_epoch": 95995,
        "meta_bstar": 0.00073686933,
        "meta_mean_motion_dot": 1.129e-05,
        "meta_mean_motion_ddot": 0,
        "tle_line1": "1 30714U 99025ARY 25346.93085203  .00001129  00000+0  73687-3 0  9996",
        "tle_line2": "2 30714  98.8373  35.4494 0066640 282.1429 257.4327 14.03292427959955"
      },
      "geometry": {
        "type": "Point",
        "coordinates": [
          -145.49560318864638,
          -11.709274726554812
        ]
      }
    },
    {
      "type": "Feature",
      "properties": {
        "norad_id": 30715,
        "name": "FENGYUN 1C DEB",
        "group": "fengyun-1c-debris",
        "lat": 75.65604062957175,
        "lon": -84.81832888021307,
        "alt_km": 814.2980430933612,
        "timestamp": "2025-12-13T20:38:51.283503+00:00",
        "meta_object_name": "FENGYUN 1C DEB",
        "meta_object_id": "1999-025ARZ",
        "meta_epoch": "2025-12-12T03:25:48.592992",
        "meta_mean_motion": 14.14686733,
        "meta_eccentricity": 0.00677007,
        "meta_inclination": 98.9724,
        "meta_ra_of_asc_node": 55.2974,
        "meta_arg_of_pericenter": 169.9309,
        "meta_mean_anomaly": 190.3238,
        "meta_ephemeris_type": 0,
        "meta_classification_type": "U",
        "meta_norad_cat_id": 30715,
        "meta_element_set_no": 999,
        "meta_rev_at_epoch": 96173,
        "meta_bstar": 0.002821555,
        "meta_mean_motion_dot": 5.509e-05,
        "meta_mean_motion_ddot": 0,
        "tle_line1": "1 30715U 99025ARZ 25346.14292353  .00005509  00000+0  28216-2 0  9999",
        "tle_line2": "2 30715  98.9724  55.2974 0067700 169.9309 190.3238 14.14686733961731"
      },
      "geometry": {
        "type": "Point",
        "coordinates": [
          -84.81832888021307,
          75.65604062957175
        ]
      }
    },
    {
      "type": "Feature",
      "properties": {
        "norad_id": 30716,
        "name": "FENGYUN 1C DEB",
        "group": "fengyun-1c-debris",
        "lat": 3.719958246350638,
        "lon": -8.379290891731015,
        "alt_km": 635.1655985209172,
        "timestamp": "2025-12-13T20:38:51.283514+00:00",
        "meta_object_name": "FENGYUN 1C DEB",
        "meta_object_id": "1999-025ASA",
        "meta_epoch": "2025-12-12T10:04:02.989920",
        "meta_mean_motion": 14.79346217,
        "meta_eccentricity": 0.00203262,
        "meta_inclination": 98.8731,
        "meta_ra_of_asc_node": 169.4497,
        "meta_arg_of_pericenter": 83.6758,
        "meta_mean_anomaly": 343.02,
        "meta_ephemeris_type": 0,
        "meta_classification_type": "U",
        "meta_norad_cat_id": 30716,
        "meta_element_set_no": 999,
        "meta_rev_at_epoch": 97819,
        "meta_bstar": 0.0061828129,
        "meta_mean_motion_dot": 0.00046453,
        "meta_mean_motion_ddot": 0,
        "tle_line1": "1 30716U 99025ASA 25346.41947905  .00046453  00000+0  61828-2 0  9999",
        "tle_line2": "2 30716  98.8731 169.4497 0020326  83.6758 343.0200 14.79346217978195"
      },
      "geometry": {
        "type": "Point",
        "coordinates": [
          -8.379290891731015,
          3.719958246350638
        ]
      }
    },
    {
      "type": "Feature",
      "properties": {
        "norad_id": 30717,
        "name": "FENGYUN 1C DEB",
        "group": "fengyun-1c-debris",
        "lat": 43.16486985204507,
        "lon": -112.79857901989878,
        "alt_km": 836.4574953327874,
        "timestamp": "2025-12-13T20:38:51.283525+00:00",
        "meta_object_name": "FENGYUN 1C DEB",
        "meta_object_id": "1999-025ASB",
        "meta_epoch": "2025-12-13T04:47:25.544544",
        "meta_mean_motion": 14.20545993,
        "meta_eccentricity": 0.00484995,
        "meta_inclination": 99.0173,
        "meta_ra_of_asc_node": 57.9626,
        "meta_arg_of_pericenter": 256.6043,
        "meta_mean_anomaly": 102.9723,
        "meta_ephemeris_type": 0,
        "meta_classification_type": "U",
        "meta_norad_cat_id": 30717,
        "meta_element_set_no": 999,
        "meta_rev_at_epoch": 96543,
        "meta_bstar": 0.0020926978,
        "meta_mean_motion_dot": 4.507e-05,
        "meta_mean_motion_ddot": 0,
        "tle_line1": "1 30717U 99025ASB 25347.19960121  .00004507  00000+0  20927-2 0  9990",
        "tle_line2": "2 30717  99.0173  57.9626 0048499 256.6043 102.9723 14.20545993965437"
      },
      "geometry": {
        "type": "Point",
        "coordinates": [
          -112.79857901989878,
          43.16486985204507
        ]
      }
    }
  ]
}